{
  "source": {
    "type": "design_continuous_thrust",
    "generated_utc": "2026-05-31T11:00:11Z",
    "hard_constraint_passed": true
  },
  "earth": {
    "mu_km3_s2": 398600.4418,
    "Re_km": 6378.137,
    "J2": 0.00108262668,
    "omega_e_rad_s": 7.2921158553e-05,
    "use_J2": true,
    "numerical_propagation_step_s": 120.0
  },
  "launch_mass_kg": 6515.0,
  "t0_epoch": "2026-05-14T13:09:19Z",
  "t0_orbit": {
    "semi_major_axis_m": 29478137.0,
    "eccentricity": 0.77684692,
    "inclination_deg": 16.5,
    "argument_of_perigee_deg": 200.0,
    "raan_deg": 8.53237,
    "mean_anomaly_deg": 1.85437
  },
  "maneuver_count": 5,
  "maneuvers": [
    {
      "maneuver_index": 1,
      "Tn_start_min": 1213.6526483020957,
      "burn_duration_min": 68.82146898905421,
      "control_fuel_%": 1.73,
      "settle_duration_s": 240.0,
      "direction_mode": "local_horizontal_yaw",
      "yaw_angle_deg": 12.0,
      "delta_deg": -11.955706166539247,
      "dv_direction": 1,
      "orbit_control_thrust_n": 490.0,
      "orbit_control_isp_s": 314.1,
      "settle_thrust_n": 20.0,
      "settle_isp_s": 290.0
    },
    {
      "maneuver_index": 2,
      "Tn_start_min": 3967.421464255763,
      "burn_duration_min": 55.43306859334325,
      "control_fuel_%": 1.73,
      "settle_duration_s": 240.0,
      "direction_mode": "local_horizontal_yaw",
      "yaw_angle_deg": 12.0,
      "delta_deg": -11.949069476832138,
      "dv_direction": 1,
      "orbit_control_thrust_n": 490.0,
      "orbit_control_isp_s": 314.1,
      "settle_thrust_n": 20.0,
      "settle_isp_s": 290.0
    },
    {
      "maneuver_index": 3,
      "Tn_start_min": 7011.12830402035,
      "burn_duration_min": 72.35583623250295,
      "control_fuel_%": 1.73,
      "settle_duration_s": 240.0,
      "direction_mode": "local_horizontal_yaw",
      "yaw_angle_deg": 11.5,
      "delta_deg": -11.451323581134679,
      "dv_direction": 1,
      "orbit_control_thrust_n": 490.0,
      "orbit_control_isp_s": 314.1,
      "settle_thrust_n": 20.0,
      "settle_isp_s": 290.0
    },
    {
      "maneuver_index": 4,
      "Tn_start_min": 9525.746272198505,
      "burn_duration_min": 64.71677525838277,
      "control_fuel_%": 1.73,
      "settle_duration_s": 240.0,
      "direction_mode": "local_horizontal_yaw",
      "yaw_angle_deg": 12.312502858616066,
      "delta_deg": -12.255348993016543,
      "dv_direction": 1,
      "orbit_control_thrust_n": 490.0,
      "orbit_control_isp_s": 314.1,
      "settle_thrust_n": 20.0,
      "settle_isp_s": 290.0
    },
    {
      "maneuver_index": 5,
      "Tn_start_min": 10378.789329786332,
      "burn_duration_min": 25.6773624420166,
      "control_fuel_%": 1.73,
      "settle_duration_s": 240.0,
      "direction_mode": "local_horizontal_yaw",
      "yaw_angle_deg": -178.50083506250266,
      "delta_deg": 1.4919062813324926,
      "dv_direction": -1,
      "orbit_control_thrust_n": 490.0,
      "orbit_control_isp_s": 314.1,
      "settle_thrust_n": 20.0,
      "settle_isp_s": 290.0
    }
  ]
}